{
  "constellation": "oneweb",
  "timestamp": "2025-07-21T05:06:13.717346+00:00",
  "satellite_count": 651,
  "data": [
    {
      "satellite_name": "ONEWEB-0514",
      "catalog_number": 54132,
      "epoch_year": 2025,
      "epoch_day": 201.47402629,
      "first_derivative": -2.7e-07,
      "second_derivative": 0.0,
      "drag_term": -0.00010068,
      "inclination": 87.9223,
      "right_ascension": 10.8972,
      "eccentricity": 0.0001706,
      "argument_of_perigee": 93.1501,
      "mean_anomaly": 266.9826,
      "mean_motion": 13.19726759,
      "revolution_number": 13307,
      "line1": "1 54132U 22138V   25201.47402629 -.00000027  00000+0 -10068-3 0  9993",
      "line2": "2 54132  87.9223  10.8972 0001706  93.1501 266.9826 13.19726759133071",
      "last_updated": "2025-07-21T05:06:13.714709+00:00",
      "constellation": "oneweb"
    },
    {
      "satellite_name": "ONEWEB-0515",
      "catalog_number": 54133,
      "epoch_year": 2025,
      "epoch_day": 201.83442026,
      "first_derivative": -3.9e-07,
      "second_derivative": 0.0,
      "drag_term": -0.00012661,
      "inclination": 87.9291,
      "right_ascension": 340.4224,
      "eccentricity": 0.0001312,
      "argument_of_perigee": 70.9212,
      "mean_anomaly": 289.2064,
      "mean_motion": 13.2077121,
      "revolution_number": 13643,
      "line1": "1 54133U 22138W   25201.83442026 -.00000039  00000+0 -12661-3 0  9993",
      "line2": "2 54133  87.9291 340.4224 0001312  70.9212 289.2064 13.20771210136433",
      "last_updated": "2025-07-21T05:06:13.714711+00:00",
      "constellation": "oneweb"
    },
    {
      "satellite_name": "ONEWEB-0516",
      "catalog_number": 54134,
      "epoch_year": 2025,
      "epoch_day": 201.52456538,
      "first_derivative": 1.9e-07,
      "second_derivative": 0.0,
      "drag_term": 0.0,
      "inclination": 87.922,
      "right_ascension": 10.9239,
      "eccentricity": 0.0001977,
      "argument_of_perigee": 89.7391,
      "mean_anomaly": 270.3968,
      "mean_motion": 13.197254,
      "revolution_number": 13308,
      "line1": "1 54134U 22138X   25201.52456538  .00000019  00000+0  16092-4 0  9992",
      "line2": "2 54134  87.9220  10.9239 0001977  89.7391 270.3968 13.19725400133084",
      "last_updated": "2025-07-21T05:06:13.714714+00:00",
      "constellation": "oneweb"
    },
    {
      "satellite_name": "ONEWEB-0517",
      "catalog_number": 54135,
      "epoch_year": 2025,
      "epoch_day": 201.50403243,
      "first_derivative": 1.85e-06,
      "second_derivative": 0.0,
      "drag_term": 0.0,
      "inclination": 87.922,
      "right_ascension": 10.8862,
      "eccentricity": 0.0001823,
      "argument_of_perigee": 102.8929,
      "mean_anomaly": 257.2407,
      "mean_motion": 13.19725721,
      "revolution_number": 13308,
      "line1": "1 54135U 22138Y   25201.50403243  .00000185  00000+0  42978-3 0  9991",
      "line2": "2 54135  87.9220  10.8862 0001823 102.8929 257.2407 13.19725721133088",
      "last_updated": "2025-07-21T05:06:13.714717+00:00",
      "constellation": "oneweb"
    },
    {
      "satellite_name": "ONEWEB-0518",
      "catalog_number": 54136,
      "epoch_year": 2025,
      "epoch_day": 201.52298966,
      "first_derivative": 5.1e-07,
      "second_derivative": 0.0,
      "drag_term": 0.0,
      "inclination": 87.922,
      "right_ascension": 10.9201,
      "eccentricity": 0.0002037,
      "argument_of_perigee": 92.0432,
      "mean_anomaly": 268.0934,
      "mean_motion": 13.19724418,
      "revolution_number": 13308,
      "line1": "1 54136U 22138Z   25201.52298966  .00000051  00000+0  96018-4 0  9995",
      "line2": "2 54136  87.9220  10.9201 0002037  92.0432 268.0934 13.19724418133081",
      "last_updated": "2025-07-21T05:06:13.714719+00:00",
      "constellation": "oneweb"
    },
    {
      "satellite_name": "ONEWEB-0519",
      "catalog_number": 54137,
      "epoch_year": 2025,
      "epoch_day": 201.85152474,
      "first_derivative": 6.8e-07,
      "second_derivative": 0.0,
      "drag_term": 0.0,
      "inclination": 87.9221,
      "right_ascension": 10.8097,
      "eccentricity": 0.0001878,
      "argument_of_perigee": 100.146,
      "mean_anomaly": 259.9885,
      "mean_motion": 13.19725965,
      "revolution_number": 13400,
      "line1": "1 54137U 22138AA  25201.85152474  .00000068  00000+0  13757-3 0  9991",
      "line2": "2 54137  87.9221  10.8097 0001878 100.1460 259.9885 13.19725965134004",
      "last_updated": "2025-07-21T05:06:13.714721+00:00",
      "constellation": "oneweb"
    },
    {
      "satellite_name": "ONEWEB-0520",
      "catalog_number": 54138,
      "epoch_year": 2025,
      "epoch_day": 201.50718761,
      "first_derivative": 9.3e-07,
      "second_derivative": 0.0,
      "drag_term": 0.0,
      "inclination": 87.9219,
      "right_ascension": 10.8817,
      "eccentricity": 0.0002199,
      "argument_of_perigee": 90.7363,
      "mean_anomaly": 269.4022,
      "mean_motion": 13.19724458,
      "revolution_number": 13307,
      "line1": "1 54138U 22138AB  25201.50718761  .00000093  00000+0  20010-3 0  9999",
      "line2": "2 54138  87.9219  10.8817 0002199  90.7363 269.4022 13.19724458133076",
      "last_updated": "2025-07-21T05:06:13.714723+00:00",
      "constellation": "oneweb"
    },
    {
      "satellite_name": "ONEWEB-0521",
      "catalog_number": 54139,
      "epoch_year": 2025,
      "epoch_day": 201.46454065,
      "first_derivative": 3.3e-07,
      "second_derivative": 0.0,
      "drag_term": 0.0,
      "inclination": 87.9219,
      "right_ascension": 10.8772,
      "eccentricity": 0.0001684,
      "argument_of_perigee": 99.1893,
      "mean_anomaly": 260.943,
      "mean_motion": 13.19725936,
      "revolution_number": 13301,
      "line1": "1 54139U 22138AC  25201.46454065  .00000033  00000+0  49110-4 0  9996",
      "line2": "2 54139  87.9219  10.8772 0001684  99.1893 260.9430 13.19725936133011",
      "last_updated": "2025-07-21T05:06:13.714725+00:00",
      "constellation": "oneweb"
    },
    {
      "satellite_name": "ONEWEB-0522",
      "catalog_number": 54140,
      "epoch_year": 2025,
      "epoch_day": 201.51982364,
      "first_derivative": 3.6e-07,
      "second_derivative": 0.0,
      "drag_term": 0.0,
      "inclination": 87.9218,
      "right_ascension": 10.8674,
      "eccentricity": 0.0001901,
      "argument_of_perigee": 90.6175,
      "mean_anomaly": 269.5176,
      "mean_motion": 13.1972571,
      "revolution_number": 13306,
      "line1": "1 54140U 22138AD  25201.51982364  .00000036  00000+0  57064-4 0  9992",
      "line2": "2 54140  87.9218  10.8674 0001901  90.6175 269.5176 13.19725710133061",
      "last_updated": "2025-07-21T05:06:13.714727+00:00",
      "constellation": "oneweb"
    },
    {
      "satellite_name": "ONEWEB-0523",
      "catalog_number": 54141,
      "epoch_year": 2025,
      "epoch_day": 201.67028499,
      "first_derivative": 8.6e-06,
      "second_derivative": 0.0,
      "drag_term": 0.0,
      "inclination": 87.9293,
      "right_ascension": 340.4851,
      "eccentricity": 7.53e-05,
      "argument_of_perigee": 82.7074,
      "mean_anomaly": 277.4145,
      "mean_motion": 13.20766681,
      "revolution_number": 13641,
      "line1": "1 54141U 22138AE  25201.67028499  .00000860  00000+0  20829-2 0  9992",
      "line2": "2 54141  87.9293 340.4851 0000753  82.7074 277.4145 13.20766681136418",
      "last_updated": "2025-07-21T05:06:13.714730+00:00",
      "constellation": "oneweb"
    },
    {
      "satellite_name": "ONEWEB-0524",
      "catalog_number": 54142,
      "epoch_year": 2025,
      "epoch_day": 201.88649869,
      "first_derivative": 2.2e-07,
      "second_derivative": 0.0,
      "drag_term": 0.0,
      "inclination": 87.9281,
      "right_ascension": 340.4439,
      "eccentricity": 0.0001628,
      "argument_of_perigee": 67.636,
      "mean_anomaly": 292.4946,
      "mean_motion": 13.20770134,
      "revolution_number": 13644,
      "line1": "1 54142U 22138AF  25201.88649869  .00000022  00000+0  22482-4 0  9995",
      "line2": "2 54142  87.9281 340.4439 0001628  67.6360 292.4946 13.20770134136447",
      "last_updated": "2025-07-21T05:06:13.714732+00:00",
      "constellation": "oneweb"
    },
    {
      "satellite_name": "ONEWEB-0525",
      "catalog_number": 54143,
      "epoch_year": 2025,
      "epoch_day": 201.46296588,
      "first_derivative": -7.1e-07,
      "second_derivative": 0.0,
      "drag_term": -0.00021035999999999998,
      "inclination": 87.9223,
      "right_ascension": 10.8986,
      "eccentricity": 0.0002155,
      "argument_of_perigee": 90.8079,
      "mean_anomaly": 269.3301,
      "mean_motion": 13.19726334,
      "revolution_number": 13307,
      "line1": "1 54143U 22138AG  25201.46296588 -.00000071  00000+0 -21036-3 0  9995",
      "line2": "2 54143  87.9223  10.8986 0002155  90.8079 269.3301 13.19726334133075",
      "last_updated": "2025-07-21T05:06:13.714734+00:00",
      "constellation": "oneweb"
    },
    {
      "satellite_name": "ONEWEB-0526",
      "catalog_number": 54144,
      "epoch_year": 2025,
      "epoch_day": 201.49614,
      "first_derivative": 8.9e-07,
      "second_derivative": 0.0,
      "drag_term": 0.0,
      "inclination": 87.9219,
      "right_ascension": 10.8797,
      "eccentricity": 0.000195,
      "argument_of_perigee": 90.6894,
      "mean_anomaly": 269.4462,
      "mean_motion": 13.19725018,
      "revolution_number": 13305,
      "line1": "1 54144U 22138AH  25201.49614000  .00000089  00000+0  18907-3 0  9992",
      "line2": "2 54144  87.9219  10.8797 0001950  90.6894 269.4462 13.19725018133051",
      "last_updated": "2025-07-21T05:06:13.714736+00:00",
      "constellation": "oneweb"
    }
  ]
}